{
 "generated_at": "2026-07-01T08:50:10Z",
 "sources": [
  {
   "name": "CelesTrak",
   "url": "https://celestrak.org/NORAD/elements/",
   "license": "frei verfügbar; Attribution. Ursprünglich USSPACECOM/Space-Track."
  },
  {
   "name": "GCAT (J. McDowell, planet4589.org)",
   "url": "https://planet4589.org/space/gcat/",
   "license": "CC-BY 4.0"
  }
 ],
 "satellites": [
  {
   "norad": 58646,
   "name": "TIANMU-1 12",
   "intl": "2023-205B",
   "group": "weather",
   "gcat": {
    "class": "B",
    "category": "MET",
    "owner": "TIANMU",
    "state": "CN"
   },
   "omm": {
    "OBJECT_NAME": "TIANMU-1 12",
    "OBJECT_ID": "2023-205B",
    "EPOCH": "2026-06-30T23:33:41.149728",
    "MEAN_MOTION": 15.27033576,
    "ECCENTRICITY": 0.00053976,
    "INCLINATION": 97.3426,
    "RA_OF_ASC_NODE": 203.0752,
    "ARG_OF_PERICENTER": 303.723,
    "MEAN_ANOMALY": 56.3494,
    "EPHEMERIS_TYPE": 0,
    "CLASSIFICATION_TYPE": "U",
    "NORAD_CAT_ID": 58646,
    "ELEMENT_SET_NO": 999,
    "REV_AT_EPOCH": 13961,
    "BSTAR": 0.00023804821,
    "MEAN_MOTION_DOT": 0.00006244,
    "MEAN_MOTION_DDOT": 0
   }
  },
  {
   "norad": 58647,
   "name": "TIANMU-1 13",
   "intl": "2023-205C",
   "group": "weather",
   "gcat": {
    "class": "B",
    "category": "MET",
    "owner": "TIANMU",
    "state": "CN"
   },
   "omm": {
    "OBJECT_NAME": "TIANMU-1 13",
    "OBJECT_ID": "2023-205C",
    "EPOCH": "2026-06-30T22:47:16.749888",
    "MEAN_MOTION": 15.26955133,
    "ECCENTRICITY": 0.00049426,
    "INCLINATION": 97.3454,
    "RA_OF_ASC_NODE": 203.3186,
    "ARG_OF_PERICENTER": 278.5865,
    "MEAN_ANOMALY": 81.4814,
    "EPHEMERIS_TYPE": 0,
    "CLASSIFICATION_TYPE": "U",
    "NORAD_CAT_ID": 58647,
    "ELEMENT_SET_NO": 999,
    "REV_AT_EPOCH": 13960,
    "BSTAR": 0.00024132954,
    "MEAN_MOTION_DOT": 0.00006316,
    "MEAN_MOTION_DDOT": 0
   }
  },
  {
   "norad": 58648,
   "name": "TIANMU-1 14",
   "intl": "2023-205D",
   "group": "weather",
   "gcat": {
    "class": "B",
    "category": "MET",
    "owner": "TIANMU",
    "state": "CN"
   },
   "omm": {
    "OBJECT_NAME": "TIANMU-1 14",
    "OBJECT_ID": "2023-205D",
    "EPOCH": "2026-06-30T23:59:45.584160",
    "MEAN_MOTION": 15.27000891,
    "ECCENTRICITY": 0.00057723,
    "INCLINATION": 97.339,
    "RA_OF_ASC_NODE": 202.5391,
    "ARG_OF_PERICENTER": 285.1641,
    "MEAN_ANOMALY": 74.896,
    "EPHEMERIS_TYPE": 0,
    "CLASSIFICATION_TYPE": "U",
    "NORAD_CAT_ID": 58648,
    "ELEMENT_SET_NO": 999,
    "REV_AT_EPOCH": 13961,
    "BSTAR": 0.00024878379,
    "MEAN_MOTION_DOT": 0.00006523,
    "MEAN_MOTION_DDOT": 0
   }
  },
  {
   "norad": 58700,
   "name": "TIANMU-1 15",
   "intl": "2024-004A",
   "group": "weather",
   "gcat": {
    "class": "B",
    "category": "MET",
    "owner": "TIANMU",
    "state": "CN"
   },
   "omm": {
    "OBJECT_NAME": "TIANMU-1 15",
    "OBJECT_ID": "2024-004A",
    "EPOCH": "2026-06-30T11:12:42.827904",
    "MEAN_MOTION": 15.26842605,
    "ECCENTRICITY": 0.00055277,
    "INCLINATION": 97.4663,
    "RA_OF_ASC_NODE": 7.6584,
    "ARG_OF_PERICENTER": 295.8617,
    "MEAN_ANOMALY": 64.2051,
    "EPHEMERIS_TYPE": 0,
    "CLASSIFICATION_TYPE": "U",
    "NORAD_CAT_ID": 58700,
    "ELEMENT_SET_NO": 999,
    "REV_AT_EPOCH": 13780,
    "BSTAR": 0.00020672607,
    "MEAN_MOTION_DOT": 0.00005379,
    "MEAN_MOTION_DDOT": 0
   }
  },
  {
   "norad": 58701,
   "name": "TIANMU-1 16",
   "intl": "2024-004B",
   "group": "weather",
   "gcat": {
    "class": "B",
    "category": "MET",
    "owner": "TIANMU",
    "state": "CN"
   },
   "omm": {
    "OBJECT_NAME": "TIANMU-1 16",
    "OBJECT_ID": "2024-004B",
    "EPOCH": "2026-06-30T23:33:56.138400",
    "MEAN_MOTION": 15.2688658,
    "ECCENTRICITY": 0.00045945,
    "INCLINATION": 97.461,
    "RA_OF_ASC_NODE": 7.3973,
    "ARG_OF_PERICENTER": 313.3295,
    "MEAN_ANOMALY": 46.756,
    "EPHEMERIS_TYPE": 0,
    "CLASSIFICATION_TYPE": "U",
    "NORAD_CAT_ID": 58701,
    "ELEMENT_SET_NO": 999,
    "REV_AT_EPOCH": 13788,
    "BSTAR": 0.00023411171,
    "MEAN_MOTION_DOT": 0.0000611,
    "MEAN_MOTION_DDOT": 0
   }
  },
  {
   "norad": 58702,
   "name": "TIANMU-1 17",
   "intl": "2024-004C",
   "group": "weather",
   "gcat": {
    "class": "B",
    "category": "MET",
    "owner": "TIANMU",
    "state": "CN"
   },
   "omm": {
    "OBJECT_NAME": "TIANMU-1 17",
    "OBJECT_ID": "2024-004C",
    "EPOCH": "2026-06-30T23:13:00.265152",
    "MEAN_MOTION": 15.26884924,
    "ECCENTRICITY": 0.00042304,
    "INCLINATION": 97.4637,
    "RA_OF_ASC_NODE": 7.8728,
    "ARG_OF_PERICENTER": 321.3501,
    "MEAN_ANOMALY": 38.7434,
    "EPHEMERIS_TYPE": 0,
    "CLASSIFICATION_TYPE": "U",
    "NORAD_CAT_ID": 58702,
    "ELEMENT_SET_NO": 999,
    "REV_AT_EPOCH": 13787,
    "BSTAR": 0.00022611478,
    "MEAN_MOTION_DOT": 0.00005898,
    "MEAN_MOTION_DDOT": 0
   }
  },
  {
   "norad": 58703,
   "name": "TIANMU-1 18",
   "intl": "2024-004D",
   "group": "weather",
   "gcat": {
    "class": "B",
    "category": "MET",
    "owner": "TIANMU",
    "state": "CN"
   },
   "omm": {
    "OBJECT_NAME": "TIANMU-1 18",
    "OBJECT_ID": "2024-004D",
    "EPOCH": "2026-06-30T22:37:27.001632",
    "MEAN_MOTION": 15.26802844,
    "ECCENTRICITY": 0.00034521,
    "INCLINATION": 97.4656,
    "RA_OF_ASC_NODE": 8.1094,
    "ARG_OF_PERICENTER": 297.0019,
    "MEAN_ANOMALY": 63.0867,
    "EPHEMERIS_TYPE": 0,
    "CLASSIFICATION_TYPE": "U",
    "NORAD_CAT_ID": 58703,
    "ELEMENT_SET_NO": 999,
    "REV_AT_EPOCH": 13787,
    "BSTAR": 0.00021096601,
    "MEAN_MOTION_DOT": 0.00005483,
    "MEAN_MOTION_DDOT": 0
   }
  },
  {
   "norad": 58660,
   "name": "TIANMU-1 19",
   "intl": "2023-208A",
   "group": "weather",
   "gcat": {
    "class": "B",
    "category": "MET",
    "owner": "TIANMU",
    "state": "CN"
   },
   "omm": {
    "OBJECT_NAME": "TIANMU-1 19",
    "OBJECT_ID": "2023-208A",
    "EPOCH": "2026-06-30T22:35:02.823360",
    "MEAN_MOTION": 15.31778747,
    "ECCENTRICITY": 0.00035368,
    "INCLINATION": 97.4522,
    "RA_OF_ASC_NODE": 298.3129,
    "ARG_OF_PERICENTER": 260.5536,
    "MEAN_ANOMALY": 99.5306,
    "EPHEMERIS_TYPE": 0,
    "CLASSIFICATION_TYPE": "U",
    "NORAD_CAT_ID": 58660,
    "ELEMENT_SET_NO": 999,
    "REV_AT_EPOCH": 13943,
    "BSTAR": 0.00030999276,
    "MEAN_MOTION_DOT": 0.00009437,
    "MEAN_MOTION_DDOT": 0
   }
  },
  {
   "norad": 58661,
   "name": "TIANMU-1 20",
   "intl": "2023-208B",
   "group": "weather",
   "gcat": {
    "class": "B",
    "category": "MET",
    "owner": "TIANMU",
    "state": "CN"
   },
   "omm": {
    "OBJECT_NAME": "TIANMU-1 20",
    "OBJECT_ID": "2023-208B",
    "EPOCH": "2026-06-30T21:40:06.237408",
    "MEAN_MOTION": 15.3296718,
    "ECCENTRICITY": 0.00055706,
    "INCLINATION": 97.4464,
    "RA_OF_ASC_NODE": 298.9241,
    "ARG_OF_PERICENTER": 273.3324,
    "MEAN_ANOMALY": 86.7281,
    "EPHEMERIS_TYPE": 0,
    "CLASSIFICATION_TYPE": "U",
    "NORAD_CAT_ID": 58661,
    "ELEMENT_SET_NO": 999,
    "REV_AT_EPOCH": 13952,
    "BSTAR": 0.00028349227,
    "MEAN_MOTION_DOT": 0.00008953,
    "MEAN_MOTION_DDOT": 0
   }
  },
  {
   "norad": 58662,
   "name": "TIANMU-1 21",
   "intl": "2023-208C",
   "group": "weather",
   "gcat": {
    "class": "B",
    "category": "MET",
    "owner": "TIANMU",
    "state": "CN"
   },
   "omm": {
    "OBJECT_NAME": "TIANMU-1 21",
    "OBJECT_ID": "2023-208C",
    "EPOCH": "2026-06-30T22:27:13.622976",
    "MEAN_MOTION": 15.3531764,
    "ECCENTRICITY": 0.0005719,
    "INCLINATION": 97.4523,
    "RA_OF_ASC_NODE": 301.6976,
    "ARG_OF_PERICENTER": 262.8989,
    "MEAN_ANOMALY": 97.1604,
    "EPHEMERIS_TYPE": 0,
    "CLASSIFICATION_TYPE": "U",
    "NORAD_CAT_ID": 58662,
    "ELEMENT_SET_NO": 999,
    "REV_AT_EPOCH": 13967,
    "BSTAR": 0.00031760761,
    "MEAN_MOTION_DOT": 0.0001082,
    "MEAN_MOTION_DDOT": 0
   }
  },
  {
   "norad": 58663,
   "name": "TIANMU-1 22",
   "intl": "2023-208D",
   "group": "weather",
   "gcat": {
    "class": "B",
    "category": "MET",
    "owner": "TIANMU",
    "state": "CN"
   },
   "omm": {
    "OBJECT_NAME": "TIANMU-1 22",
    "OBJECT_ID": "2023-208D",
    "EPOCH": "2026-06-30T22:15:36.108864",
    "MEAN_MOTION": 15.31246508,
    "ECCENTRICITY": 0.00022188,
    "INCLINATION": 97.4518,
    "RA_OF_ASC_NODE": 298.2237,
    "ARG_OF_PERICENTER": 298.0835,
    "MEAN_ANOMALY": 62.0182,
    "EPHEMERIS_TYPE": 0,
    "CLASSIFICATION_TYPE": "U",
    "NORAD_CAT_ID": 58663,
    "ELEMENT_SET_NO": 999,
    "REV_AT_EPOCH": 13943,
    "BSTAR": 0.00028689381,
    "MEAN_MOTION_DOT": 0.00008582,
    "MEAN_MOTION_DDOT": 0
   }
  },
  {
   "norad": 58297,
   "name": "UMBRA-07",
   "intl": "2023-174AT",
   "group": "sar",
   "gcat": {
    "class": "B",
    "category": "IMG-R",
    "owner": "UMBRA",
    "state": "US"
   },
   "omm": {
    "OBJECT_NAME": "UMBRA-07",
    "OBJECT_ID": "2023-174AT",
    "EPOCH": "2026-06-30T13:32:59.624736",
    "MEAN_MOTION": 15.0937533,
    "ECCENTRICITY": 0.00036576,
    "INCLINATION": 97.3789,
    "RA_OF_ASC_NODE": 236.8213,
    "ARG_OF_PERICENTER": 56.7706,
    "MEAN_ANOMALY": 303.3874,
    "EPHEMERIS_TYPE": 0,
    "CLASSIFICATION_TYPE": "U",
    "NORAD_CAT_ID": 58297,
    "ELEMENT_SET_NO": 999,
    "REV_AT_EPOCH": 14543,
    "BSTAR": 0.00065069469,
    "MEAN_MOTION_DOT": 0.00010341,
    "MEAN_MOTION_DDOT": 0
   }
  },
  {
   "norad": 60541,
   "name": "UMBRA-09",
   "intl": "2024-149CB",
   "group": "sar",
   "gcat": {
    "class": "B",
    "category": "IMG-R",
    "owner": "UMBRA",
    "state": "US"
   },
   "omm": {
    "OBJECT_NAME": "UMBRA-09",
    "OBJECT_ID": "2024-149CB",
    "EPOCH": "2026-06-30T21:47:40.308288",
    "MEAN_MOTION": 15.1845213,
    "ECCENTRICITY": 0.00014393,
    "INCLINATION": 97.6983,
    "RA_OF_ASC_NODE": 269.3511,
    "ARG_OF_PERICENTER": 232.149,
    "MEAN_ANOMALY": 127.9614,
    "EPHEMERIS_TYPE": 0,
    "CLASSIFICATION_TYPE": "U",
    "NORAD_CAT_ID": 60541,
    "ELEMENT_SET_NO": 999,
    "REV_AT_EPOCH": 10280,
    "BSTAR": 0.00094957093,
    "MEAN_MOTION_DOT": 0.00019526,
    "MEAN_MOTION_DDOT": 0
   }
  }
 ]
}
